STARLINK-1489
1 15776C 20038AY  21326.13940548  .00005771  00000-0  38676-3 0  3267
2 15776  53.0533  38.1195 0001346  72.8009 355.9731 15.06386305    18
